*******************************************************************************
Ephemeris / WWW_USER Fri Apr 12 21:12:28 2019 Pasadena, USA      / Horizons    
*******************************************************************************
Target body name: Jupiter (599)                   {source: jup341}
Center body name: Earth (399)                     {source: DE431mx}
Center-site name: (user defined site below)
*******************************************************************************
Start time      : A.D. 1900-Jan-01 00:00:00.0000 UT      
Stop  time      : A.D. 2100-Jan-01 00:00:00.0000 UT      
Step-size       : 14400 minutes
*******************************************************************************
Target pole/equ : IAU_JUPITER                     {West-longitude positive}
Target radii    : 71492.0 x 71492.0 x 66854.0 km  {Equator, meridian, pole}    
Center geodetic : 279.000000,29.0000000,0.0100000 {E-lon(deg),Lat(deg),Alt(km)}
Center cylindric: 279.000000,5582.84695,3073.9060 {E-lon(deg),Dxy(km),Dz(km)}
Center pole/equ : High-precision EOP model        {East-longitude positive}
Center radii    : 6378.1 x 6378.1 x 6356.8 km     {Equator, meridian, pole}    
Target primary  : Sun
Vis. interferer : MOON (R_eq= 1737.400) km        {source: DE431mx}
Rel. light bend : Sun, EARTH                      {source: DE431mx}
Rel. lght bnd GM: 1.3271E+11, 3.9860E+05 km^3/s^2                              
Atmos refraction: NO (AIRLESS)
RA format       : DEG
Time format     : CAL 
EOP file        : eop.190411.p190703                                           
EOP coverage    : DATA-BASED 1962-JAN-20 TO 2019-APR-11. PREDICTS-> 2019-JUL-02
Units conversion: 1 au= 149597870.700 km, c= 299792.458 km/s, 1 day= 86400.0 s 
Table cut-offs 1: Elevation (-90.0deg=NO ),Airmass (>38.000=NO), Daylight (NO )
Table cut-offs 2: Solar elongation (  0.0,180.0=NO ),Local Hour Angle( 0.0=NO )
Table cut-offs 3: RA/DEC angular rate (     0.0=NO )                           
********************************************************************************
 Date__(UT)__HR:MN     R.A._(ICRF/J2K)_DEC R.A._(a-appar)_DEC. Azi_(a-appr)_Elev
********************************************************************************
$$SOE
 1985-Nov-01 00:00     311.30928 -18.91648 311.10440 -18.97095 190.2595  41.3922
 1985-Nov-11 00:00     312.36901 -18.62905 312.16430 -18.68473 200.9627  39.5944
 1985-Nov-21 00:00  m  313.69084 -18.26516 313.48670 -18.32221 210.5767  36.6757
 1985-Dec-01 00:00     315.24076 -17.82874 315.03724 -17.88735 219.0365  32.8940
 1985-Dec-11 00:00     316.98618 -17.32382 316.78349 -17.38416 226.4335  28.4703
 1985-Dec-21 00:00  m  318.89625 -16.75428 318.69471 -16.81643 232.9293  23.5761
 1985-Dec-31 00:00 A   320.93830 -16.12569 320.73811 -16.18960 238.7008  18.3331
 1986-Jan-10 00:00 A   323.08438 -15.44349 322.88555 -15.50919 243.9102  12.8287
 1986-Jan-20 00:00 Am  325.30788 -14.71375 325.11045 -14.78124 248.7005   7.1233
 1986-Jan-30 00:00 A   327.58209 -13.94416 327.38624 -14.01331 253.1964   1.2572
 1986-Feb-09 00:00 N   329.88519 -13.14196 329.69098 -13.21261 257.5091  -4.7379
 1986-Feb-19 00:00 Nm  332.19504 -12.31555 332.00221 -12.38775 261.7436 -10.8391
 1986-Mar-01 00:00 N   334.49015 -11.47438 334.29880 -11.54775 266.0077 -17.0266
 1986-Mar-11 00:00 N   336.75278 -10.62716 336.56304 -10.70155 270.4204 -23.2774
 1986-Mar-21 00:00 Nm  338.96293  -9.78419 338.77465  -9.85944 275.1275 -29.5663
 1986-Mar-31 00:00 C   341.10176  -8.95601 340.91485  -9.03196 280.3205 -35.8567
 1986-Apr-10 00:00 Cm  343.15205  -8.15253 342.96655  -8.22900 286.2700 -42.0904
 1986-Apr-20 00:00 Cm  345.09293  -7.38554 344.90892  -7.46229 293.3758 -48.1759
 1986-Apr-30 00:00 C   346.90496  -6.66623 346.72239  -6.74309 302.2400 -53.9523
 1986-May-10 00:00 *m  348.56788  -6.00574 348.38659  -6.08264 313.7342 -59.1351
 1986-May-20 00:00 *m  350.05761  -5.41687 349.87777  -5.49362 328.8772 -63.2378
 1986-May-30 00:00 *   351.35205  -4.91101 351.17374  -4.98742 347.9945 -65.5319
 1986-Jun-09 00:00 *m  352.42690  -4.49992 352.24992  -4.57599   9.1456 -65.3091
 1986-Jun-19 00:00 *m  353.25669  -4.19559 353.08105  -4.27126  28.6225 -62.4334
 1986-Jun-29 00:00 *   353.82078  -4.00698 353.64661  -4.08211  44.2603 -57.4170
 1986-Jul-09 00:00 *m  354.09931  -3.94220 353.92649  -4.01679  56.2667 -50.9112
 1986-Jul-19 00:00 *m  354.07993  -4.00548 353.90827  -4.07958  65.6617 -43.3933
 1986-Jul-29 00:00 *   353.76346  -4.19432 353.59290  -4.26793  73.3551 -35.1657
 1986-Aug-08 00:00 *m  353.16173  -4.50114 352.99220  -4.57423  79.9991 -26.4270
 1986-Aug-18 00:00 *m  352.30777  -4.90854 352.13903  -4.98116  86.0435 -17.3328
 1986-Aug-28 00:00 C   351.25546  -5.38990 351.08713  -5.46215  91.8182  -8.0284
 1986-Sep-07 00:00 Cm  350.07438  -5.91273 349.90631  -5.98463  97.5950   1.3362
 1986-Sep-17 00:00 Nm  348.85250  -6.43753 348.68456  -6.50907 103.6225  10.5929
 1986-Sep-27 00:00 N   347.68128  -6.92524 347.51310  -6.99655 110.1643  19.5574
 1986-Oct-07 00:00 Am  346.64703  -7.34122 346.47840  -7.41239 117.5249  28.0246
 1986-Oct-17 00:00 Am  345.82694  -7.65593 345.65791  -7.72699 126.0584  35.7586
 1986-Oct-27 00:00 A   345.27486  -7.85081 345.10540  -7.92184 136.1612  42.4825
 1986-Nov-06 00:00  m  345.02517  -7.91540 344.85520  -7.98653 148.1602  47.8659
 1986-Nov-16 00:00  m  345.09379  -7.84584 344.92336  -7.91720 162.0583  51.5498
 1986-Nov-26 00:00     345.47599  -7.64610 345.30534  -7.71772 177.2228  53.2467
 1986-Dec-06 00:00  m  346.15805  -7.32245 345.98731  -7.39436 192.3868  52.8954
 1986-Dec-16 00:00  m  347.11720  -6.88396 346.94628  -6.95628 206.2728  50.7291
 1986-Dec-26 00:00     348.32378  -6.34232 348.15283  -6.41507 218.2211  47.1596
 1987-Jan-05 00:00 Am  349.74963  -5.70815 349.57890  -5.78123 228.2139  42.6087
 1987-Jan-15 00:00 Am  351.36392  -4.99354 351.19332  -5.06697 236.5624  37.4067
 1987-Jan-25 00:00 A   353.13672  -4.21075 352.96616  -4.28453 243.6436  31.7835
 1987-Feb-04 00:00 Am  355.04233  -3.37052 354.87197  -3.44449 249.7911  25.8938
 1987-Feb-14 00:00 Nm  357.05386  -2.48498 356.88370  -2.55901 255.2719  19.8366
 1987-Feb-24 00:00 N   359.14788  -1.56524 358.97778  -1.63927 260.2950  13.6793
 1987-Mar-06 00:00 Nm    1.30394  -0.62142   1.13385  -0.69532 265.0271   7.4710
 1987-Mar-16 00:00 Nm    3.50034   0.33516   3.33033   0.26156 269.6081   1.2465
 1987-Mar-26 00:00 C     5.71896   1.29479   5.54912   1.22163 274.1627  -4.9616
 1987-Apr-05 00:00 Cm    7.94234   2.24804   7.77238   2.17546 278.8124 -11.1216
 1987-Apr-15 00:00 C    10.15147   3.18469   9.98149   3.11282 283.6845 -17.1995
 1987-Apr-25 00:00 C    12.33005   4.09635  12.16026   4.02540 288.9228 -23.1499
 1987-May-05 00:00 *m   14.46007   4.97411  14.29046   4.90416 294.6977 -28.9136
 1987-May-15 00:00 *    16.52175   5.80888  16.35226   5.73999 301.2167 -34.4091
 1987-May-25 00:00 *    18.49680   6.59316  18.32761   6.52547 308.7282 -39.5159
 1987-Jun-04 00:00 *m   20.36307   7.31828  20.19434   7.25188 317.5087 -44.0657
 1987-Jun-14 00:00 *    22.09688   7.97601  21.92867   7.91087 327.8059 -47.8255
 1987-Jun-24 00:00 *    23.67493   8.55918  23.50721   8.49529 339.7013 -50.4974
 1987-Jul-04 00:00 *m   25.06890   9.05914  24.90187   8.99651 352.9181 -51.7638
 1987-Jul-14 00:00 *    26.25088   9.46843  26.08478   9.40701   6.7152 -51.3754
 1987-Jul-24 00:00 *    27.19352   9.78017  27.02828   9.71975  20.1018 -49.2521
 1987-Aug-03 00:00 *m   27.86714   9.98663  27.70278   9.92708  32.2875 -45.5037
 1987-Aug-13 00:00 *    28.24887  10.08295  28.08571  10.02416  42.9339 -40.3538
 1987-Aug-23 00:00 C    28.32151  10.06557  28.15960  10.00728  52.0940 -34.0488
 1987-Sep-02 00:00 Cm   28.07675   9.93355  27.91598   9.87548  60.0154 -26.8053
 1987-Sep-12 00:00 N    27.52612   9.69273  27.36658   9.63472  66.9891 -18.8050
 1987-Sep-22 00:00 N    26.69760   9.35378  26.53934   9.29563  73.2956 -10.2045
 1987-Oct-02 00:00 Nm   25.64217   8.93587  25.48509   8.87737  79.1860  -1.1516
 1987-Oct-12 00:00 A    24.43543   8.46755  24.27928   8.40855  84.8916   8.2004
 1987-Oct-22 00:00 A    23.16467   7.98182  23.00929   7.92227  90.6532  17.6914
 1987-Nov-01 00:00  m   21.92808   7.51708  21.77343   7.45701  96.7469  27.1481
 1987-Nov-11 00:00      20.82049   7.11058  20.66622   7.04995 103.5386  36.3821
 1987-Nov-21 00:00      19.91990   6.79298  19.76568   6.73183 111.5716  45.1801
 1987-Dec-01 00:00  m   19.28867   6.58894  19.13448   6.52744 121.6907  53.2617
 1987-Dec-11 00:00      18.96378   6.51200  18.80949   6.45027 135.1951  60.2028
 1987-Dec-21 00:00      18.96052   6.56667  18.80583   6.50476 153.5955  65.3112
 1987-Dec-31 00:00 Am   19.28000   6.75139  19.12480   6.68947 176.7653  67.6589
 1988-Jan-10 00:00 A    19.90678   7.05706  19.75105   6.99530 200.4659  66.7383
 1988-Jan-20 00:00 A    20.81889   7.47199  20.66256   7.41053 219.7795  63.1513
 1988-Jan-30 00:00 Am   21.99108   7.98279  21.83390   7.92172 233.8983  57.9809
 1988-Feb-09 00:00 N    23.39289   8.57358  23.23475   8.51308 244.2238  52.0150
 1988-Feb-19 00:00 Nm   24.99664   9.22989  24.83766   9.17018 252.1267  45.6859
 1988-Feb-29 00:00 Nm   26.77521   9.93712  26.61526   9.87831 258.5122  39.2151
 1988-Mar-10 00:00 N    28.70092  10.68066  28.53978  10.62285 263.9397  32.7166
 1988-Mar-20 00:00 Nm   30.75089  11.44819  30.58872  11.39165 268.7615  26.2557
 1988-Mar-30 00:00 Cm   32.90208  12.22735  32.73897  12.17225 273.2110  19.8696
 1988-Apr-09 00:00 C    35.13220  13.00682  34.96805  12.95323 277.4548  13.5822
 1988-Apr-19 00:00 Cm   37.42281  13.77733  37.25767  13.72545 281.6207   7.4148
 1988-Apr-29 00:00 Cm   39.75344  14.52938  39.58748  14.47939 285.8167   1.3846
 1988-May-09 00:00 *    42.10478  15.25510  41.93813  15.20709 290.1417  -4.4881
 1988-May-19 00:00 *m   44.45939  15.94802  44.29211  15.90207 294.6940 -10.1757
 1988-May-29 00:00 *m   46.79619  16.60154  46.62833  16.55775 299.5781 -15.6452
